[{"OBJECT_NAME":"POLYITAN-1","OBJECT_ID":"2014-033AJ","EPOCH":"2026-03-09T22:27:50.258304","MEAN_MOTION":15.29568085,"ECCENTRICITY":0.00093607,"INCLINATION":98.1053,"RA_OF_ASC_NODE":86.0432,"ARG_OF_PERICENTER":127.248,"MEAN_ANOMALY":232.9614,"EPHEMERIS_TYPE":0,"CLASSIFICATION_TYPE":"U","NORAD_CAT_ID":40042,"ELEMENT_SET_NO":999,"REV_AT_EPOCH":63840,"BSTAR":0.00083772474,"MEAN_MOTION_DOT":0.00024003,"MEAN_MOTION_DDOT":0},{"OBJECT_NAME":"STARLINK-32253","OBJECT_ID":"2024-152P","EPOCH":"2026-03-09T19:57:56.807136","MEAN_MOTION":15.30221532,"ECCENTRICITY":6.674e-5,"INCLINATION":53.1576,"RA_OF_ASC_NODE":267.6861,"ARG_OF_PERICENTER":105.9856,"MEAN_ANOMALY":254.1218,"EPHEMERIS_TYPE":0,"CLASSIFICATION_TYPE":"U","NORAD_CAT_ID":60733,"ELEMENT_SET_NO":999,"REV_AT_EPOCH":8682,"BSTAR":0.00057572153,"MEAN_MOTION_DOT":0.00016742,"MEAN_MOTION_DDOT":0}]
